0 COSMOS 2251 DEB
1 36468U 93036BBT 13286.91109506  .00024048  00000-0  23141-2 0  2128
2 36468 074.0321 011.2318 0144438 277.4898 085.3964 14.85304562216171
0 COSMOS 2251 DEB
1 36468U 93036BBT 13289.87372800  .00023482  00000-0  22540-2 0  2139
2 36468 074.0379 005.3720 0144081 273.9117 084.4930 14.85438910216611
0 COSMOS 2251 DEB
1 36468U 93036BBT 13294.52044794  .00034958  00000-0  33134-2 0  2147
2 36468 073.9910 356.0724 0142984 265.9206 098.0548 14.85951617217307
